      2.10          N: GNSS NAV DATA                        RINEX VERSION / TYPE
fic2rin                                 09/19/2018 00:20:05 PGM / RUN BY / DATE
                                                            END OF HEADER
29 18  9 18 12  0  0.0 3.740978427231e-04-7.503331289627e-12 0.000000000000e+00
    3.700000000000e+01-6.093750000000e+00 4.300893435189e-09-2.947495721313e+00
   -2.067536115646e-07 7.945614634082e-04 4.107132554054e-06 5.153631591797e+03
    2.160000000000e+05 5.774199962616e-08 5.398468707891e-01 4.842877388000e-08
    9.847071407078e-01 3.137812500000e+02 1.615167678125e+00-8.141053393266e-09
    8.143196339671e-11 1.000000000000e+00 2.019000000000e+03 0.000000000000e+00
    2.400000000000e+00 0.000000000000e+00-1.024454832077e-08 3.700000000000e+01
    2.088060000000e+05 4.000000000000e+00
20 18  9 18 12  0  0.0 5.159876309335e-04 5.684341886081e-13 0.000000000000e+00
    3.500000000000e+01-3.503125000000e+01 5.140214110550e-09 4.431739101208e-01
   -1.974403858185e-06 4.274569801055e-03 9.546056389809e-06 5.153673957825e+03
    2.160000000000e+05 5.401670932770e-08 2.460298502702e+00-6.891787052155e-08
    9.291912355618e-01 1.840312500000e+02 2.106066872379e+00-8.298202796312e-09
    6.750281176306e-11 1.000000000000e+00 2.019000000000e+03 0.000000000000e+00
    2.400000000000e+00 0.000000000000e+00-8.381903171539e-09 3.500000000000e+01
    2.088060000000e+05 4.000000000000e+00
22 18  9 18 12  0  0.0-5.226233042777e-04-1.091393642128e-11 0.000000000000e+00
    8.800000000000e+01-3.003125000000e+01 5.250218692682e-09 2.012598762920e+00
   -1.698732376099e-06 7.082007126883e-03 8.635222911835e-06 5.153712560654e+03
    2.160000000000e+05 1.434236764908e-07 2.509806750428e+00-9.126961231232e-08
    9.259564706037e-01 1.902187500000e+02-1.483769387122e+00-8.203555996750e-09
    7.536028191537e-11 1.000000000000e+00 2.019000000000e+03 0.000000000000e+00
    2.400000000000e+00 0.000000000000e+00-1.816079020500e-08 8.800000000000e+01
    2.088060000000e+05 4.000000000000e+00
24 18  9 18 12  0  0.0-5.553662776947e-05-4.547473508865e-13 0.000000000000e+00
    5.700000000000e+01 2.334375000000e+01 4.984850496175e-09 9.412329107230e-01
    1.117587089539e-06 7.260793587193e-03 7.649883627892e-06 5.153629018784e+03
    2.160000000000e+05-2.048909664154e-08-1.660991275548e+00 7.823109626770e-08
    9.403498904446e-01 2.218437500000e+02 5.324930551703e-01-8.310346159274e-09
   -3.153702792951e-10 1.000000000000e+00 2.019000000000e+03 0.000000000000e+00
    2.400000000000e+00 0.000000000000e+00 2.793967723846e-09 5.700000000000e+01
    2.088060000000e+05 4.000000000000e+00
23 18  9 18 12  0  0.0-2.106050960720e-04 7.958078640513e-13 0.000000000000e+00
    4.800000000000e+01 1.184375000000e+01 5.085926134952e-09 1.384843102514e+00
    6.612390279770e-07 1.263187860604e-02 7.105991244316e-06 5.153726194382e+03
    2.160000000000e+05-2.086162567139e-07-2.679457619399e+00 6.705522537231e-08
    9.436946814714e-01 2.386875000000e+02-2.327829386386e+00-8.391063807203e-09
   -8.678932940965e-11 1.000000000000e+00 2.019000000000e+03 0.000000000000e+00
    2.400000000000e+00 0.000000000000e+00-2.002343535423e-08 4.800000000000e+01
    2.088060000000e+05 4.000000000000e+00
19 18  9 18 12  0  0.0-4.015853628516e-04 3.524291969370e-12 0.000000000000e+00
    8.500000000000e+01-7.875000000000e+00 4.320537110570e-09-7.680145463172e-01
   -2.142041921616e-07 9.669882012531e-03 4.755333065987e-06 5.153601165771e+03
    2.160000000000e+05-1.098960638046e-07 5.758282742904e-01 9.685754776001e-08
    9.809628238277e-01 3.010937500000e+02 1.287522420237e+00-8.197127157534e-09
    6.178828801592e-11 1.000000000000e+00 2.019000000000e+03 0.000000000000e+00
    2.400000000000e+00 0.000000000000e+00-1.536682248116e-08 8.500000000000e+01
    2.088060000000e+05 4.000000000000e+00
21 18  9 18 12  0  0.0-3.351238556206e-04 5.911715561524e-12 0.000000000000e+00
    4.400000000000e+01-7.634375000000e+01 5.051996150204e-09-1.191309914497e+00
   -3.693625330925e-06 2.435495052487e-02 7.100403308868e-06 5.153627866745e+03
    2.160000000000e+05-4.190951585770e-07 1.473165230856e+00 4.377216100693e-07
    9.449809097680e-01 2.357812500000e+02-1.527661136853e+00-8.625002123101e-09
   -1.453631978178e-10 1.000000000000e+00 2.019000000000e+03 0.000000000000e+00
    2.400000000000e+00 0.000000000000e+00-1.024454832077e-08 4.400000000000e+01
    2.088060000000e+05 4.000000000000e+00
12 18  9 18 12  0  0.0 3.060698509216e-04-2.728484105319e-12 0.000000000000e+00
    9.100000000000e+01 6.596875000000e+01 4.015167247832e-09-6.566063842572e-01
    3.602355718613e-06 7.024931954220e-03 7.314607501030e-06 5.153776519775e+03
    2.160000000000e+05 4.284083843231e-08-5.041395610820e-01 1.061707735062e-07
    9.856586387186e-01 2.577812500000e+02 1.023886746456e+00-7.932473276495e-09
    1.378628853997e-10 1.000000000000e+00 2.019000000000e+03 0.000000000000e+00
    2.400000000000e+00 0.000000000000e+00-1.257285475731e-08 9.100000000000e+01
    2.088060000000e+05 4.000000000000e+00
 9 18  9 18 12  0  0.0 5.058124661446e-04-2.160049916711e-12 0.000000000000e+00
    4.800000000000e+01 1.015625000000e+01 4.777699010341e-09-3.103732741853e+00
    6.146728992462e-07 1.036635832861e-03 6.882473826408e-06 5.153539382935e+03
    2.160000000000e+05-2.607703208923e-08-2.676751409669e+00-1.862645149231e-08
    9.528795950770e-01 2.435937500000e+02 1.738625533601e+00-8.099623096099e-09
    2.321525272275e-11 1.000000000000e+00 2.019000000000e+03 0.000000000000e+00
    2.400000000000e+00 0.000000000000e+00 9.313225746155e-10 4.800000000000e+01
    2.088060000000e+05 4.000000000000e+00
11 18  9 18 12  0  0.0-7.170489989221e-04 2.842170943040e-12 0.000000000000e+00
    1.360000000000e+02-5.331250000000e+01 6.122040721855e-09-7.801560276015e-02
   -2.713873982430e-06 1.702024054248e-02 4.395842552185e-06 5.153653749466e+03
    2.160000000000e+05-2.123415470123e-07 1.095946092885e+00-1.154839992523e-07
    9.064752513613e-01 2.677500000000e+02 1.816989979417e+00-9.214669542259e-09
   -1.678641350722e-11 1.000000000000e+00 2.019000000000e+03 0.000000000000e+00
    3.400000000000e+00 0.000000000000e+00-1.210719347000e-08 1.360000000000e+02
    2.088060000000e+05 4.000000000000e+00
10 18  9 18 12  0  0.0 1.811520196497e-04-2.501110429876e-12 0.000000000000e+00
    1.020000000000e+02-2.531250000000e+01 4.344466678761e-09-1.413119939695e+00
   -1.318752765656e-06 3.797053126618e-03 9.603798389435e-06 5.153664665222e+03
    2.160000000000e+05 3.911554813385e-08 2.570184526296e+00-1.080334186554e-07
    9.618651436698e-01 1.978125000000e+02-2.801244367460e+00-7.792110286956e-09
    1.571494030463e-10 1.000000000000e+00 2.019000000000e+03 0.000000000000e+00
    2.400000000000e+00 0.000000000000e+00 1.862645149231e-09 1.020000000000e+02
    2.088060000000e+05 4.000000000000e+00
32 18  9 18 12  0  0.0-4.200972616673e-04 1.136868377216e-11 0.000000000000e+00
    1.000000000000e+02 1.646875000000e+01 4.619478134092e-09-2.781609269717e+00
    9.257346391678e-07 2.297818195075e-03 6.951391696930e-06 5.153699817657e+03
    2.160000000000e+05-3.725290298462e-09-2.671233999504e+00 2.235174179077e-08
    9.572182721661e-01 2.424375000000e+02-2.549724505140e+00-7.987832725295e-09
    9.393248409357e-11 1.000000000000e+00 2.019000000000e+03 0.000000000000e+00
    2.400000000000e+00 0.000000000000e+00 4.656612873077e-10 1.000000000000e+02
    2.088060000000e+05 4.000000000000e+00
26 18  9 18 12  0  0.0-1.666415482759e-05 1.159605744760e-11 0.000000000000e+00
    7.900000000000e+01 6.771875000000e+01 4.584119518407e-09-1.603862001439e+00
    3.250315785408e-06 2.929602516815e-03 7.878988981247e-06 5.153724590302e+03
    2.160000000000e+05 3.725290298462e-09-5.892890063210e-01-6.705522537231e-08
    9.546314614207e-01 2.236250000000e+02 5.967840301074e-02-8.127124241632e-09
    1.225051028293e-10 1.000000000000e+00 2.019000000000e+03 0.000000000000e+00
    2.400000000000e+00 0.000000000000e+00 7.450580596924e-09 7.900000000000e+01
    2.088060000000e+05 4.000000000000e+00
27 18  9 18 12  0  0.0 3.437423147261e-04-3.751665644813e-12 0.000000000000e+00
    7.000000000000e+01 8.687500000000e+00 4.345895309698e-09 2.764549077491e+00
    4.339963197708e-07 6.033405195922e-03 4.038214683533e-06 5.153693506241e+03
    2.160000000000e+05-1.117587089539e-07 4.743979347496e-01-2.235174179077e-08
    9.780558724786e-01 3.113125000000e+02 4.541333433566e-01-8.026762918323e-09
    1.089331089298e-10 1.000000000000e+00 2.019000000000e+03 0.000000000000e+00
    2.400000000000e+00 0.000000000000e+00 1.862645149231e-09 7.000000000000e+01
    2.088060000000e+05 4.000000000000e+00
28 18  9 18 12  0  0.0 7.451018318534e-04 2.160049916711e-12 0.000000000000e+00
    6.000000000000e+01 5.787500000000e+01 3.831588172456e-09-2.612466633116e+00
    2.991408109665e-06 1.954970962834e-02 6.850808858871e-06 5.153693075180e+03
    2.160000000000e+05 2.011656761169e-07-4.810820630447e-01 1.955777406693e-07
    9.849716889616e-01 2.536250000000e+02-1.513119074294e+00-7.469954010711e-09
    1.885792836555e-10 1.000000000000e+00 2.019000000000e+03 0.000000000000e+00
    3.400000000000e+00 0.000000000000e+00-1.117587089539e-08 6.000000000000e+01
    2.088060000000e+05 4.000000000000e+00
11 18  9 18 11 59 44.0-7.170471362770e-04 2.842170943040e-12 0.000000000000e+00
    0.000000000000e+00-5.331250000000e+01 6.122397879589e-09-8.034954518964e-02
   -2.713873982430e-06 1.702023949474e-02 4.395842552185e-06 5.153653751373e+03
    2.159840000000e+05-2.123415470123e-07 1.095946240640e+00-1.154839992523e-07
    9.064752513613e-01 2.677500000000e+02 1.816990184226e+00-9.214669542259e-09
   -1.678641350722e-11 1.000000000000e+00 2.019000000000e+03 0.000000000000e+00
    2.400000000000e+00 0.000000000000e+00-1.210719347000e-08 0.000000000000e+00
    2.100960000000e+05 4.000000000000e+00
